NORAD_CAT_ID,OBJECT_NAME,OBJECT_TYPE,EPOCH,MEAN_MOTION,ECCENTRICITY,INCLINATION,RA_OF_ASC_NODE,ARG_OF_PERICENTER,MEAN_ANOMALY,BSTAR,MEAN_MOTION_DOT,MEAN_MOTION_DDOT,TLE_LINE0,TLE_LINE1,TLE_LINE2,SEMIMAJOR_AXIS,PERIOD,APOGEE,PERIGEE,DECAYED
53738.0,STARLINK-4662,PAYLOAD,2024-06-18 09:20:40,15.08839535,0.0001316,53.2164,208.9354,93.6018,266.5125,3.9074e-06,-2.26e-06,0.0,0 STARLINK-4662,1 53738U 22107AQ  24170.38935873 -.00000226  00000-0  39074-5 0  9997,2 53738  53.2164 208.9354 0001316  93.6018 266.5125 15.08839535 99448,6917.882,95.438,540.657,538.836,0.0
53738.0,STARLINK-4662,PAYLOAD,2024-06-19 09:11:27,15.08833418,0.0001215,53.2156,204.4749,90.893,269.2201,0.00010219,1.339e-05,0.0,0 STARLINK-4662,1 53738U 22107AQ  24171.38296206  .00001339  00000-0  10219-3 0  9991,2 53738  53.2156 204.4749 0001215  90.8930 269.2201 15.08833418 98963,6917.901,95.438,540.606,538.925,0.0
53738.0,STARLINK-4662,PAYLOAD,2024-06-20 10:37:38,15.08838496,0.0001209,53.2161,199.7169,89.1553,270.9578,4.0049e-05,3.5e-06,0.0,0 STARLINK-4662,1 53738U 22107AQ  24172.44280368  .00000350  00000-0  40049-4 0  9998,2 53738  53.2161 199.7169 0001209  89.1553 270.9578 15.08838496 99751,6917.885,95.438,540.586,538.914,0.0
53738.0,STARLINK-4662,PAYLOAD,2024-06-20 18:34:33,15.08837721,0.0001209,53.2162,198.2302,87.8899,272.2232,4.1764e-05,3.77e-06,0.0,0 STARLINK-4662,1 53738U 22107AQ  24172.77400461  .00000377  00000-0  41764-4 0  9996,2 53738  53.2162 198.2302 0001209  87.8899 272.2232 15.08837721 99171,6917.887,95.438,540.589,538.916,0.0
53738.0,STARLINK-4662,PAYLOAD,2024-06-21 10:28:25,15.08832562,0.000129,53.2167,195.2573,89.8226,270.2914,0.00010377,1.364e-05,0.0,0 STARLINK-4662,1 53738U 22107AQ  24173.43640733  .00001364  00000-0  10377-3 0  9990,2 53738  53.2167 195.2573 0001290  89.8226 270.2914 15.08832562 99903,6917.903,95.438,540.661,538.876,0.0
53738.0,STARLINK-4662,PAYLOAD,2024-06-22 10:19:12,15.08838437,0.0001265,53.2168,190.797,93.9948,266.1188,3.7829e-05,3.14e-06,0.0,0 STARLINK-4662,1 53738U 22107AQ  24174.43000743  .00000314  00000-0  37829-4 0  9998,2 53738  53.2168 190.7970 0001265  93.9948 266.1188 15.08838437 99425,6917.885,95.438,540.625,538.875,0.0
53738.0,STARLINK-4662,PAYLOAD,2024-06-23 08:34:36,15.08841094,0.0001295,53.2169,186.6329,86.5859,273.5282,6.4585e-05,7.4e-06,0.0,0 STARLINK-4662,1 53738U 22107AQ  24175.35736567  .00000740  00000-0  64585-4 0  9992,2 53738  53.2169 186.6329 0001295  86.5859 273.5282 15.08841094100197,6917.877,95.437,540.638,538.846,0.0
53738.0,STARLINK-4662,PAYLOAD,2024-06-24 05:14:36,15.08845069,0.0001293,53.2168,182.7673,82.0932,278.0207,7.8859e-05,9.68e-06,0.0,0 STARLINK-4662,1 53738U 22107AQ  24176.21848127  .00000968  00000-0  78859-4 0  9995,2 53738  53.2168 182.7673 0001293  82.0932 278.0207 15.08845069 99691,6917.865,95.437,540.624,538.835,0.0
53738.0,STARLINK-4662,PAYLOAD,2024-06-24 06:49:59,15.0884574,0.0001324,53.2168,182.4701,80.0188,280.0953,8.4241e-05,1.053e-05,0.0,0 STARLINK-4662,1 53738U 22107AQ  24176.28472067  .00001053  00000-0  84241-4 0  9996,2 53738  53.2168 182.4701 0001324  80.0188 280.0953 15.08845740100337,6917.863,95.437,540.644,538.812,0.0
53738.0,STARLINK-4662,PAYLOAD,2024-06-25 05:05:24,15.08839016,0.0001275,53.2163,178.3059,83.0198,277.094,-1.4516e-05,-5.19e-06,0.0,0 STARLINK-4662,1 53738U 22107AQ  24177.21208675 -.00000519  00000-0 -14516-4 0  9998,2 53738  53.2163 178.3059 0001275  83.0198 277.0940 15.08839016 99845,6917.883,95.438,540.63,538.866,0.0
53738.0,STARLINK-4662,PAYLOAD,2024-06-25 06:40:47,15.08839232,0.000129,53.2164,178.0086,82.2633,277.8505,-1.3179e-05,-4.98e-06,0.0,0 STARLINK-4662,1 53738U 22107AQ  24177.27832656 -.00000498  00000-0 -13179-4 0  9996,2 53738  53.2164 178.0086 0001290  82.2633 277.8505 15.08839232100483,6917.883,95.438,540.64,538.855,0.0
53738.0,STARLINK-4662,PAYLOAD,2024-06-26 04:56:10,15.08841486,0.0001496,53.2171,173.8524,110.2761,249.8392,5.471e-05,5.83e-06,0.0,0 STARLINK-4662,1 53738U 22107AQ  24178.20568161  .00000583  00000-0  54710-4 0  9996,2 53738  53.2171 173.8524 0001496 110.2761 249.8392 15.08841486 99993,6917.876,95.437,540.776,538.706,0.0
53738.0,STARLINK-4662,PAYLOAD,2024-06-26 06:31:33,15.08842324,0.0001418,53.2165,173.5516,105.3279,254.787,6.2627e-05,7.09e-06,0.0,0 STARLINK-4662,1 53738U 22107AQ  24178.27192064  .00000709  00000-0  62627-4 0  9994,2 53738  53.2165 173.5516 0001418 105.3279 254.7870 15.08842324100639,6917.873,95.437,540.719,538.757,0.0
53738.0,STARLINK-4662,PAYLOAD,2024-06-27 04:46:58,15.08837145,0.000137,53.2164,169.3877,98.7231,261.3916,5.1112e-05,5.26e-06,0.0,0 STARLINK-4662,1 53738U 22107AQ  24179.19928582  .00000526  00000-0  51112-4 0  9992,2 53738  53.2164 169.3877 0001370  98.7231 261.3916 15.08837145100147,6917.889,95.438,540.702,538.806,0.0
53738.0,STARLINK-4662,PAYLOAD,2024-06-27 15:54:40,15.08835877,0.0001367,53.2164,167.3054,94.6497,265.4651,1.7898e-05,-3e-08,0.0,0 STARLINK-4662,1 53738U 22107AQ  24179.66296870 -.00000003  00000-0  17898-4 0  9996,2 53738  53.2164 167.3054 0001367  94.6497 265.4651 15.08835877100845,6917.893,95.438,540.704,538.812,0.0
53738.0,STARLINK-4662,PAYLOAD,2024-06-28 04:37:45,15.0883503,0.0001445,53.216,164.9286,106.4056,253.7095,-4.3126e-05,-9.74e-06,0.0,0 STARLINK-4662,1 53738U 22107AQ  24180.19289331 -.00000974  00000-0 -43126-4 0  9991,2 53738  53.2160 164.9286 0001445 106.4056 253.7095 15.08835030100293,6917.896,95.438,540.76,538.761,0.0
53738.0,STARLINK-4662,PAYLOAD,2024-06-28 06:13:09,15.08796673,0.0001649,53.2161,164.6304,102.8155,257.3022,0.0004406,6.723e-05,0.0,0 STARLINK-4662,1 53738U 22107AQ  24180.25914094  .00006723  00000-0  44060-3 0  9992,2 53738  53.2161 164.6304 0001649 102.8155 257.3022 15.08796673100309,6918.013,95.44,541.019,538.737,0.0
53738.0,STARLINK-4662,PAYLOAD,2024-06-29 04:28:30,15.08873026,0.0001068,53.2146,160.4633,104.7431,255.368,0.00033542,5.059e-05,0.0,0 STARLINK-4662,1 53738U 22107AQ  24181.18645988  .00005059  00000-0  33542-3 0  9992,2 53738  53.2146 160.4633 0001068 104.7431 255.3680 15.08873026100445,6917.779,95.435,540.383,538.906,0.0
53738.0,STARLINK-4662,PAYLOAD,2024-06-29 07:39:15,15.0887739,0.0001062,53.2147,159.8694,105.4181,254.6928,0.00036816,5.582e-05,0.0,0 STARLINK-4662,1 53738U 22107AQ  24181.31893402  .00005582  00000-0  36816-3 0  9991,2 53738  53.2147 159.8694 0001062 105.4181 254.6928 15.08877390101096,6917.766,95.435,540.366,538.896,0.0
53738.0,STARLINK-4662,PAYLOAD,2024-06-29 15:36:13,15.08842075,0.0001083,53.2163,158.3848,105.2917,254.8194,7.7516e-05,9.46e-06,0.0,0 STARLINK-4662,1 53738U 22107AQ  24181.65016132  .00000946  00000-0  77516-4 0  9997,2 53738  53.2163 158.3848 0001083 105.2917 254.8194 15.08842075100512,6917.874,95.437,540.488,538.99,0.0
53738.0,STARLINK-4662,PAYLOAD,2024-06-29 21:57:47,15.0883686,0.0002004,53.2135,157.1964,93.7532,266.3689,0.00010245,1.343e-05,0.0,0 STARLINK-4662,1 53738U 22107AQ  24181.91512913  .00001343  00000-0  10245-3 0  9991,2 53738  53.2135 157.1964 0002004  93.7532 266.3689 15.08836860101181,6917.89,95.438,541.141,538.369,0.0
53738.0,STARLINK-4662,PAYLOAD,2024-06-30 04:19:20,15.08822716,0.0001048,53.2148,156.0017,94.2289,265.8823,-0.00010731,-1.994e-05,0.0,0 STARLINK-4662,1 53738U 22107AQ  24182.18010335 -.00001994  00000-0 -10731-3 0  9996,2 53738  53.2148 156.0017 0001048  94.2289 265.8823 15.08822716100597,6917.933,95.439,540.523,539.073,0.0
53738.0,STARLINK-4662,PAYLOAD,2024-06-30 07:30:06,15.08826856,0.0001229,53.2158,155.4087,97.4116,262.7016,-5.4963e-05,-1.162e-05,0.0,0 STARLINK-4662,1 53738U 22107AQ  24182.31258101 -.00001162  00000-0 -54963-4 0  9999,2 53738  53.2158 155.4087 0001229  97.4116 262.7016 15.08826856101245,6917.921,95.438,540.636,538.935,0.0
53738.0,STARLINK-4662,PAYLOAD,2024-06-30 15:27:02,15.08834896,0.0001236,53.2162,153.9229,102.7935,257.3195,-8.9144e-06,-4.3e-06,0.0,0 STARLINK-4662,1 53738U 22107AQ  24182.64377631 -.00000430  00000-0 -89144-5 0  9992,2 53738  53.2162 153.9229 0001236 102.7935 257.3195 15.08834896100664,6917.896,95.438,540.616,538.906,0.0
53738.0,STARLINK-4662,PAYLOAD,2024-07-01 04:10:06,15.08850425,0.0001112,53.2148,151.544,113.3173,246.7937,-0.00016087,-2.848e-05,0.0,0 STARLINK-4662,1 53738U 22107AQ  24183.17368461 -.00002848  00000-0 -16087-3 0  9991,2 53738  53.2148 151.5440 0001112 113.3173 246.7937 15.08850425100743,6917.849,95.437,540.483,538.944,0.0
53738.0,STARLINK-4662,PAYLOAD,2024-07-01 07:20:52,15.08853992,0.0001158,53.2151,150.9492,112.3598,247.7517,-5.2504e-05,-1.124e-05,0.0,0 STARLINK-4662,1 53738U 22107AQ  24183.30616279 -.00001124  00000-0 -52504-4 0  9990,2 53738  53.2151 150.9492 0001158 112.3598 247.7517 15.08853992101396,6917.838,95.437,540.504,538.902,0.0
53738.0,STARLINK-4662,PAYLOAD,2024-07-01 15:17:48,15.08846744,0.0001055,53.2146,149.4621,115.9317,244.1784,-4.5637e-05,-1.014e-05,0.0,0 STARLINK-4662,1 53738U 22107AQ  24183.63736688 -.00001014  00000-0 -45637-4 0  9990,2 53738  53.2146 149.4621 0001055 115.9317 244.1784 15.08846744101441,6917.86,95.437,540.455,538.995,0.0
53738.0,STARLINK-4662,PAYLOAD,2024-07-02 04:00:54,15.08833101,0.0001125,53.2144,147.0833,113.8135,246.2975,0.0002145,3.127e-05,0.0,0 STARLINK-4662,1 53738U 22107AQ  24184.16729874  .00003127  00000-0  21450-3 0  9999,2 53738  53.2144 147.0833 0001125 113.8135 246.2975 15.08833101100897,6917.901,95.438,540.545,538.988,0.0
53738.0,STARLINK-4662,PAYLOAD,2024-07-02 15:08:36,15.08837274,0.0001298,53.2161,144.9989,117.7174,242.395,0.0002097,3.051e-05,0.0,0 STARLINK-4662,1 53738U 22107AQ  24184.63097780  .00003051  00000-0  20970-3 0  9997,2 53738  53.2161 144.9989 0001298 117.7174 242.3950 15.08837274101594,6917.889,95.438,540.652,538.856,0.0
53738.0,STARLINK-4662,PAYLOAD,2024-07-03 07:02:28,15.08834045,9.11e-05,53.2161,142.0296,108.9004,251.2087,-6.5319e-05,-1.327e-05,0.0,0 STARLINK-4662,1 53738U 22107AQ  24185.29338065 -.00001327  00000-0 -65319-4 0  9997,2 53738  53.2161 142.0296 0000911 108.9004 251.2087 15.08834045101064,6917.899,95.438,540.394,539.133,0.0
